CZ-4B R/B               
1 28059U 03049C   18049.78161418 -.00000023  00000-0  63657-5 0  9996
2 28059  98.5343 305.2211 0049439 213.7849 190.3237 14.52517491759482
CZ-2C R/B               
1 28222U 04012C   18050.52792025  .00000692  00000-0  45915-4 0  9994
2 28222  97.5605   7.9140 0049411  58.7671  75.2800 15.09598331757920
SL-16 R/B               
1 28353U 04021B   18049.93369770 -.00000156  00000-0 -56640-4 0  9993
2 28353  70.9997 280.9925 0005840 210.1327 149.9460 14.14209581707037
CZ-2C R/B               
1 28480U 04046B   18049.87771197  .00000022  00000-0  24122-4 0  9994
2 28480  98.1849 135.1101 0141397 216.1130 255.9759 14.25666095689362
ARIANE 5 R/B            
1 28499U 04049H   18050.24426385  .00000068  00000-0  15706-4 0  9994
2 28499  98.0628 139.5081 0093326 137.1790 237.2000 14.79881530710531
CZ-2D R/B               
1 28738U 05024B   18049.70039269  .00000517  00000-0  34286-4 0  9997
2 28738  97.4689  86.3590 0010903 231.2906 128.7349 15.11447079693023
SUZAKU (ASTRO-EII)      
1 28773U 05025A   18049.68879031  .00001086  00000-0  50184-4 0  9990
2 28773  31.3824 137.2119 0004750 303.2075  56.8116 15.16364716694815
ALOS (DAICHI)           
1 28931U 06002A   18050.48152211  .00000128  00000-0  33823-4 0  9993
2 28931  97.8260  70.2087 0000700  76.5295 283.5988 14.62459147643607
H-2A R/B                
1 28932U 06002B   18050.44812719  .00000434  00000-0  46593-4 0  9994
2 28932  98.2231 348.4991 0088593 220.6347 255.1595 14.91632719654668
AKARI (ASTRO-F)         
1 28939U 06005A   18049.69227539  .00002730  00000-0  82151-4 0  9990
2 28939  98.2251 282.4139 0104140  50.8561 310.1875 15.30219655650793
RESURS-DK 1             
1 29228U 06021A   18050.14483430  .00000114  00000-0  15992-4 0  9999
2 29228  69.9351 189.7017 0007014 301.8513  58.1965 15.02284530645182
GENESIS 1               
1 29252U 06029A   18049.83857141  .00000356  00000-0  27984-4 0  9994
2 29252  64.5037 199.6932 0037789 303.3414  56.4092 15.17185078639241
CZ-4B R/B               
1 29507U 06046C   18049.93179374 -.00000336  00000-0 -21066-4 0  9997
2 29507  97.7906  62.6655 0052832 137.6141 222.9183 15.00267644617989
CZ-2C R/B               
1 31114U 07010B   18049.73529111  .00000020  00000-0  28812-4 0  9996
2 31114  98.3775 304.1382 0058959 218.9060 140.7867 14.19264582562484
COSMO-SKYMED 1          
1 31598U 07023A   18050.53225238 -.00000030  00000-0  28488-5 0  9991
2 31598  97.8881 235.7178 0001428  95.3057 264.8342 14.82150163579085
GENESIS 2               
1 31789U 07028A   18049.87131304  .00000185  00000-0  19705-4 0  9994
2 31789  64.5029 238.4316 0005784 271.8977  88.1483 15.16436995586312
COSMOS 2428             
1 31792U 07029A   18050.52252744  .00000334  00000-0  20652-3 0  9993
2 31792  70.9468 253.1539 0011449 263.7618  96.2199 14.12453178548995
SL-16 R/B               
1 31793U 07029B   18049.91562735  .00000274  00000-0  16832-3 0  9997
2 31793  70.9731 230.8993 0001723 254.5641 208.5486 14.14393600549569
KORONAS-FOTON           
1 33504U 09003A   18049.86539908  .00000217  00000-0  98311-5 0  9994
2 33504  82.4449 347.8061 0018866 342.3233  17.7340 15.15088020498728
TIANGONG 1              
1 37820U 11053A   18050.44408676  .00136595  16635-4  18612-3 0  9998
2 37820  42.7511 102.3338 0016643  61.8086  64.4170 16.05337594367316
H-2A R/B                
1 38341U 12025E   18050.21228280  .00000157  00000-0  25860-4 0  9996
2 38341  98.4189 145.8481 0057004  83.9292 276.8412 14.83711953311502
CUSAT 2 & FALCON 9 R/B  
1 39271U 13055G   18050.54371961  .00006362  00000-0  16063-3 0  9992
2 39271  80.9650  94.8272 0620945 188.6518 170.3573 14.40194645228193
ALOS-2                  
1 39766U 14029A   18050.51596371 -.00000363  00000-0 -41788-4 0  9994
2 39766  97.9207 149.2989 0001612  85.4417 274.6985 14.79468276202175
SL-27 R/B               
1 40354U 14084B   18049.93507261  .00001055  00000-0  28081-4 0  9992
2 40354  74.7404 343.8159 0040566 242.5062 117.2023 15.38837832177402
ASTRO-H (HITOMI)        
1 41337U 16012A   18050.27288570  .00000308  00000-0  18169-4 0  9991
2 41337  31.0068 352.9343 0012450 320.5756  39.3973 14.98429864110019
TIANGONG-2              
1 41765U 16057A   18050.48178241  .00004946  00000-0  63086-4 0  9991
2 41765  42.7852 324.4930 0003019 182.2207 155.3949 15.60407981 81582
SHENZHOU-11 MODULE      
1 41868U 16061G   18049.90958056  .00009144  00000-0  76856-4 0  9999
2 41868  42.7955 307.7828 0002074 339.6379  75.2916 15.70118798 71677
HUMANITY STAR           
1 43168U 18010F   18050.56022013  .00354105  34880-4  20784-2 0  9993
2 43168  82.9124 110.0751 0127712 112.9387 248.5417 15.67360156  4595
